0 FENGYUN 1C DEB
1 30085U 99025QN  13281.86402910  .00006541  00000-0  11262-2 0  9637
2 30085 098.4577 337.9154 0178015 083.7581 336.1373 14.58985208356486
0 FENGYUN 1C DEB
1 30085U 99025QN  13282.82261703  .00008795  00000-0  15098-2 0  9642
2 30085 098.4579 338.8915 0177881 080.8107 331.0049 14.59014362356620
0 FENGYUN 1C DEB
1 30085U 99025QN  13283.85294766  .00010937  00000-0  18745-2 0  9655
2 30085 098.4578 339.9412 0177771 077.6432 342.7782 14.59029931356773
0 FENGYUN 1C DEB
1 30085U 99025QN  13286.80285387  .00007861  00000-0  13506-2 0  9676
2 30085 098.4587 342.9472 0177422 068.5441 357.3754 14.59067854357201
0 FENGYUN 1C DEB
1 30085U 99025QN  13287.82966556  .00011151  00000-0  19108-2 0  9685
2 30085 098.4587 343.9936 0177250 065.3704 350.8860 14.59085806357352
0 FENGYUN 1C DEB
1 30085U 99025QN  13288.85755166  .00011549  00000-0  19781-2 0  9691
2 30085 098.4584 345.0411 0177115 062.1919 350.1332 14.59112236357505
0 FENGYUN 1C DEB
1 30085U 99025QN  13290.09311029  .00011232  00000-0  19237-2 0  9703
2 30085 098.4578 346.3002 0177003 058.3854 000.3223 14.59132672357687
0 FENGYUN 1C DEB
1 30085U 99025QN  13291.47682698  .00010277  00000-0  17611-2 0  9712
2 30085 098.4573 347.7103 0176804 054.1104 068.8907 14.59157958357883
0 FENGYUN 1C DEB
1 30085U 99025QN  13293.10971068  .00008667  00000-0  14868-2 0  9728
2 30085 098.4566 349.3743 0176628 049.0607 006.4661 14.59183554358122
0 FENGYUN 1C DEB
1 30085U 99025QN  13294.13771918  .00010277  00000-0  17606-2 0  9738
2 30085 098.4562 350.4218 0176519 045.8753 006.7021 14.59197815358277
0 FENGYUN 1C DEB
1 30085U 99025QN  13295.16784609  .00010211  00000-0  17493-2 0  9746
2 30085 098.4561 351.4714 0176387 042.6857 018.1192 14.59213104358424
